NORAD_CAT_ID,OBJECT_NAME,OBJECT_TYPE,EPOCH,MEAN_MOTION,ECCENTRICITY,INCLINATION,RA_OF_ASC_NODE,ARG_OF_PERICENTER,MEAN_ANOMALY,BSTAR,MEAN_MOTION_DOT,MEAN_MOTION_DDOT,TLE_LINE0,TLE_LINE1,TLE_LINE2,SEMIMAJOR_AXIS,PERIOD,APOGEE,PERIGEE,DECAYED
49157.0,STARLINK-3051,PAYLOAD,2024-05-24 08:10:48,14.98338108,0.0002807,69.9991,124.2953,258.6569,101.4275,4.861e-05,4.87e-06,0.0,0 STARLINK-3051,1 49157U 21082AD  24145.34083985  .00000487  00000-0  48610-4 0  9997,2 49157  69.9991 124.2953 0002807 258.6569 101.4275 14.98338108149554,6950.168,96.106,573.984,570.082,0.0
49157.0,STARLINK-3051,PAYLOAD,2024-05-24 22:36:01,14.98327262,0.0002707,69.9995,122.7812,256.1615,103.9243,8.2109e-05,8.87e-06,0.0,0 STARLINK-3051,1 49157U 21082AD  24145.94168489  .00000887  00000-0  82109-4 0  9991,2 49157  69.9995 122.7812 0002707 256.1615 103.9243 14.98327262149640,6950.201,96.107,573.948,570.185,0.0
49157.0,STARLINK-3051,PAYLOAD,2024-05-25 05:00:34,14.98325783,0.0002781,69.9993,122.1079,258.0424,102.0423,4.7688e-05,4.76e-06,0.0,0 STARLINK-3051,1 49157U 21082AD  24146.20872715  .00000476  00000-0  47688-4 0  9992,2 49157  69.9993 122.1079 0002781 258.0424 102.0423 14.98325783149688,6950.206,96.107,574.004,570.138,0.0
49157.0,STARLINK-3051,PAYLOAD,2024-05-25 08:12:50,14.98325082,0.0002843,69.999,121.7702,262.6856,97.398,3.4365e-05,3.17e-06,0.0,0 STARLINK-3051,1 49157U 21082AD  24146.34224834  .00000317  00000-0  34365-4 0  9992,2 49157  69.9990 121.7702 0002843 262.6856  97.3980 14.98325082149701,6950.208,96.107,574.049,570.097,0.0
49157.0,STARLINK-3051,PAYLOAD,2024-05-26 05:02:34,14.98336502,0.000294,69.9991,119.5831,261.349,98.7336,0.00010271,1.133e-05,0.0,0 STARLINK-3051,1 49157U 21082AD  24147.21011965  .00001133  00000-0  10271-3 0  9994,2 49157  69.9991 119.5831 0002940 261.3490  98.7336 14.98336502149831,6950.173,96.107,574.081,569.994,0.0
49157.0,STARLINK-3051,PAYLOAD,2024-05-26 08:14:50,14.98332164,0.0003075,69.9985,119.2441,269.7753,90.3054,9.2524e-05,1.011e-05,0.0,0 STARLINK-3051,1 49157U 21082AD  24147.34364248  .00001011  00000-0  92524-4 0  9990,2 49157  69.9985 119.2441 0003075 269.7753  90.3054 14.98332164149859,6950.186,96.107,574.188,569.914,0.0
49157.0,STARLINK-3051,PAYLOAD,2024-05-26 21:03:55,14.98328104,0.0002968,69.9986,117.8975,269.8771,90.2048,7.5017e-05,8.02e-06,0.0,0 STARLINK-3051,1 49157U 21082AD  24147.87772502  .00000802  00000-0  75017-4 0  9999,2 49157  69.9986 117.8975 0002968 269.8771  90.2048 14.98328104149937,6950.199,96.107,574.127,570.001,0.0
49157.0,STARLINK-3051,PAYLOAD,2024-05-26 22:40:03,14.98327579,0.0002919,69.9988,117.7299,267.0219,93.0606,8.0287e-05,8.65e-06,0.0,0 STARLINK-3051,1 49157U 21082AD  24147.94448497  .00000865  00000-0  80287-4 0  9994,2 49157  69.9988 117.7299 0002919 267.0219  93.0606 14.98327579149947,6950.2,96.107,574.094,570.037,0.0
49157.0,STARLINK-3051,PAYLOAD,2024-05-27 14:41:24,14.98329711,0.0002863,69.9989,116.0461,269.9721,90.111,5.1129e-05,5.17e-06,0.0,0 STARLINK-3051,1 49157U 21082AD  24148.61208509  .00000517  00000-0  51129-4 0  9994,2 49157  69.9989 116.0461 0002863 269.9721  90.1110 14.98329711150049,6950.194,96.107,574.049,570.069,0.0
49157.0,STARLINK-3051,PAYLOAD,2024-05-27 21:05:55,14.98338107,0.0003007,69.9984,115.3725,269.6708,90.4106,9.3132e-05,1.019e-05,0.0,0 STARLINK-3051,1 49157U 21082AD  24148.87911722  .00001019  00000-0  93132-4 0  9998,2 49157  69.9984 115.3725 0003007 269.6708  90.4106 14.98338107150083,6950.168,96.106,574.123,569.943,0.0
49157.0,STARLINK-3051,PAYLOAD,2024-05-27 22:42:03,14.9833893,0.000301,69.9984,115.2044,267.6442,92.4372,9.851e-05,1.083e-05,0.0,0 STARLINK-3051,1 49157U 21082AD  24148.94587601  .00001083  00000-0  98510-4 0  9997,2 49157  69.9984 115.2044 0003010 267.6442  92.4372 14.98338930150095,6950.165,96.106,574.122,569.938,0.0
49157.0,STARLINK-3051,PAYLOAD,2024-05-28 05:06:38,14.98312534,0.0002892,69.9984,114.5312,277.6201,82.463,-0.00019417,-2.408e-05,0.0,0 STARLINK-3051,1 49157U 21082AD  24149.21293988 -.00002408  00000-0 -19417-3 0  9992,2 49157  69.9984 114.5312 0002892 277.6201  82.4630 14.98312534150139,6950.247,96.108,574.122,570.102,0.0
49157.0,STARLINK-3051,PAYLOAD,2024-05-28 08:18:56,14.98279423,0.0002734,69.9985,114.1945,272.1748,87.9098,-0.00055448,-6.694e-05,0.0,0 STARLINK-3051,1 49157U 21082AD  24149.34649120 -.00006694  00000-0 -55448-3 0  9994,2 49157  69.9985 114.1945 0002734 272.1748  87.9098 14.98279423150158,6950.349,96.11,574.115,570.314,0.0
49157.0,STARLINK-3051,PAYLOAD,2024-05-28 22:44:07,14.9831296,0.0002877,69.9983,112.6791,279.9551,80.1283,-0.00012534,-1.588e-05,0.0,0 STARLINK-3051,1 49157U 21082AD  24149.94730763 -.00001588  00000-0 -12534-3 0  9990,2 49157  69.9983 112.6791 0002877 279.9551  80.1283 14.98312960150248,6950.246,96.108,574.11,570.111,0.0
49157.0,STARLINK-3051,PAYLOAD,2024-05-29 05:08:39,14.98321497,0.0002377,69.9991,112.0063,271.9129,88.1758,-1.6684e-05,-2.92e-06,0.0,0 STARLINK-3051,1 49157U 21082AD  24150.21434159 -.00000292  00000-0 -16684-4 0  9994,2 49157  69.9991 112.0063 0002377 271.9129  88.1758 14.98321497150285,6950.219,96.108,573.736,570.432,0.0
49157.0,STARLINK-3051,PAYLOAD,2024-05-29 14:45:26,14.98334486,0.000257,69.9988,110.9967,274.0236,86.0629,7.7624e-05,8.33e-06,0.0,0 STARLINK-3051,1 49157U 21082AD  24150.61489226  .00000833  00000-0  77624-4 0  9993,2 49157  69.9988 110.9967 0002570 274.0236  86.0629 14.98334486150342,6950.179,96.107,573.83,570.258,0.0
49157.0,STARLINK-3051,PAYLOAD,2024-05-29 21:09:58,14.98339434,0.0002567,69.9991,110.3236,270.5398,89.5467,8.1491e-05,8.8e-06,0.0,0 STARLINK-3051,1 49157U 21082AD  24150.88192906  .00000880  00000-0  81491-4 0  9997,2 49157  69.9991 110.3236 0002567 270.5398  89.5467 14.98339434150385,6950.164,96.106,573.813,570.245,0.0
49157.0,STARLINK-3051,PAYLOAD,2024-05-29 22:46:06,14.98339567,0.0002556,69.9992,110.1556,271.2722,88.8145,9.1986e-05,1.005e-05,0.0,0 STARLINK-3051,1 49157U 21082AD  24150.94868886  .00001005  00000-0  91986-4 0  9991,2 49157  69.9992 110.1556 0002556 271.2722  88.8145 14.98339567150399,6950.163,96.106,573.805,570.252,0.0
49157.0,STARLINK-3051,PAYLOAD,2024-05-30 06:46:46,14.98344371,0.0002536,69.9992,109.3135,268.6161,91.4708,0.00018443,2.109e-05,0.0,0 STARLINK-3051,1 49157U 21082AD  24151.28248531  .00002109  00000-0  18443-3 0  9990,2 49157  69.9992 109.3135 0002536 268.6161  91.4708 14.98344371150447,6950.148,96.106,573.776,570.251,0.0
49157.0,STARLINK-3051,PAYLOAD,2024-05-30 06:46:47,14.9831759,0.000238,69.9989,109.3133,275.538,84.5508,0.00091325,0.00010817,0.0,0 STARLINK-3051,1 49157U 21082AD  24151.28249708  .00010817  00000-0  91325-3 0  9992,2 49157  69.9989 109.3133 0002380 275.5380  84.5508 14.98317590150442,6950.231,96.108,573.75,570.442,0.0
49157.0,STARLINK-3051,PAYLOAD,2024-05-31 05:12:39,14.98355999,0.0002411,69.9998,106.9567,275.3316,84.7567,0.00048177,5.664e-05,0.0,0 STARLINK-3051,1 49157U 21082AD  24152.21712223  .00005664  00000-0  48177-3 0  9994,2 49157  69.9998 106.9567 0002411 275.3316  84.7567 14.98355999150585,6950.112,96.105,573.653,570.302,0.0
49157.0,STARLINK-3051,PAYLOAD,2024-05-31 06:48:47,14.98358743,0.0002403,70.0002,106.7885,275.0311,85.0574,0.00053763,6.332e-05,0.0,0 STARLINK-3051,1 49157U 21082AD  24152.28388060  .00006332  00000-0  53763-3 0  9999,2 49157  70.0002 106.7885 0002403 275.0311  85.0574 14.98358743150591,6950.104,96.105,573.639,570.299,0.0
49157.0,STARLINK-3051,PAYLOAD,2024-05-31 21:14:00,14.98339515,0.000204,70.0022,105.2729,279.2995,80.7933,0.00057292,6.751e-05,0.0,0 STARLINK-3051,1 49157U 21082AD  24152.88472550  .00006751  00000-0  57292-3 0  9999,2 49157  70.0022 105.2729 0002040 279.2995  80.7933 14.98339515150682,6950.163,96.106,573.446,570.611,0.0
49157.0,STARLINK-3051,PAYLOAD,2024-05-31 22:50:08,14.98341341,0.0002286,70.0,105.1036,273.7157,86.3741,0.00020039,2.3e-05,0.0,0 STARLINK-3051,1 49157U 21082AD  24152.95148165  .00002300  00000-0  20039-3 0  9994,2 49157  70.0000 105.1036 0002286 273.7157  86.3741 14.98341341150699,6950.158,96.106,573.612,570.434,0.0
49157.0,STARLINK-3051,PAYLOAD,2024-06-01 06:50:48,14.98340823,0.0002362,70.0001,104.2629,277.3703,82.7188,-3.5287e-05,-5.14e-06,0.0,0 STARLINK-3051,1 49157U 21082AD  24153.28527933 -.00000514  00000-0 -35287-4 0  9994,2 49157  70.0001 104.2629 0002362 277.3703  82.7188 14.98340823150745,6950.159,96.106,573.666,570.383,0.0
49157.0,STARLINK-3051,PAYLOAD,2024-06-01 21:16:00,14.98334501,0.000232,70.0004,102.7479,277.2458,82.8437,-0.00011953,-1.519e-05,0.0,0 STARLINK-3051,1 49157U 21082AD  24153.88612045 -.00001519  00000-0 -11953-3 0  9998,2 49157  70.0004 102.7479 0002320 277.2458  82.8437 14.98334501150838,6950.179,96.107,573.656,570.432,0.0
49157.0,STARLINK-3051,PAYLOAD,2024-06-02 13:17:20,14.98359496,0.0002416,69.9998,101.0656,277.7891,82.2994,-0.00035154,-4.288e-05,0.0,0 STARLINK-3051,1 49157U 21082AD  24154.55370849 -.00004288  00000-0 -35154-3 0  9991,2 49157  69.9998 101.0656 0002416 277.7891  82.2994 14.98359496150931,6950.102,96.105,573.646,570.288,0.0
49157.0,STARLINK-3051,PAYLOAD,2024-06-03 05:18:40,14.98347118,0.0002343,69.9994,99.3799,276.6503,83.4389,0.0002828,3.284e-05,0.0,0 STARLINK-3051,1 49157U 21082AD  24155.22130580  .00003284  00000-0  28280-3 0  9997,2 49157  69.9994  99.3799 0002343 276.6503  83.4389 14.98347118151032,6950.14,96.106,573.633,570.377,0.0
49157.0,STARLINK-3051,PAYLOAD,2024-06-03 13:19:20,14.98356211,0.0001918,70.0048,98.5401,281.1431,78.9513,-0.00077337,-9.314e-05,0.0,0 STARLINK-3051,1 49157U 21082AD  24155.55510062 -.00009314  00000-0 -77337-3 0  9999,2 49157  70.0048  98.5401 0001918 281.1431  78.9513 14.98356211151081,6950.112,96.105,573.31,570.644,0.0
49157.0,STARLINK-3051,PAYLOAD,2024-06-04 03:44:35,14.98323336,0.0002122,70.0012,97.0262,270.0134,90.0782,-7.768e-05,-1.019e-05,0.0,0 STARLINK-3051,1 49157U 21082AD  24156.15596178 -.00001019  00000-0 -77680-4 0  9994,2 49157  70.0012  97.0262 0002122 270.0134  90.0782 14.98323336151171,6950.213,96.107,573.553,570.604,0.0
